start=new Date('2023-05-15T00:00:00.000Z').valueOf();
sats=[{"TLE_LINE1":"1 56347U 23058AG  23134.91667824 -.00801485  00000-0 -13524-1 0  9993","PERIAPSIS":"404.019","MEAN_MOTION":"15.53967434","NORAD_CAT_ID":"56347","SEMIMAJOR_AXIS":"6783.293","MEAN_MOTION_DOT":"-0.00801485","OBJECT_NAME":"STARLINK-5829","GP_ID":"231857549","CLASSIFICATION_TYPE":"U","RCS_SIZE":"MEDIUM","OBJECT_TYPE":"PAYLOAD","ECCENTRICITY":"0.00016790","OBJECT_ID":"2023-058AG","COUNTRY_CODE":"US","EPHEMERIS_TYPE":"0","BSTAR":"-0.01352400000000","ELEMENT_SET_NO":"999","SITE":"AFWTR","LAUNCH_DATE":"2023-04-27","TIME_SYSTEM":"UTC","ARG_OF_PERICENTER":"85.1055","PERIOD":"92.666","EPOCH":"2023-05-14T22:00:00.999936","INCLINATION":"97.6630","RA_OF_ASC_NODE":"135.0212","MEAN_ELEMENT_THEORY":"SGP4","FILE":"3908005","TLE_LINE2":"2 56347  97.6630 135.0212 0001679  85.1055  68.1595 15.53967434  1304","MEAN_ANOMALY":"68.1595","REF_FRAME":"TEME","REV_AT_EPOCH":"130","DECAY_DATE":null,"CENTER_NAME":"EARTH","MEAN_MOTION_DDOT":"0.0000000000000","APOAPSIS":"406.297"},{"MEAN_ELEMENT_THEORY":"SGP4","RA_OF_ASC_NODE":"135.0207","INCLINATION":"97.6625","MEAN_ANOMALY":"67.0210","REF_FRAME":"TEME","FILE":"3908005","TLE_LINE2":"2 56348  97.6625 135.0207 0001660  85.2757  67.0210 15.53951245  1308","REV_AT_EPOCH":"130","APOAPSIS":"406.331","MEAN_MOTION_DDOT":"0.0000000000000","CENTER_NAME":"EARTH","DECAY_DATE":null,"ARG_OF_PERICENTER":"85.2757","LAUNCH_DATE":"2023-04-27","TIME_SYSTEM":"UTC","SITE":"AFWTR","EPOCH":"2023-05-14T22:00:00.999936","PERIOD":"92.667","EPHEMERIS_TYPE":"0","COUNTRY_CODE":"US","BSTAR":"-0.01353900000000","ELEMENT_SET_NO":"999","MEAN_MOTION":"15.53951245","PERIAPSIS":"404.079","TLE_LINE1":"1 56348U 23058AH  23134.91667824 -.00801864  00000-0 -13539-1 0  9991","MEAN_MOTION_DOT":"-0.00801864","SEMIMAJOR_AXIS":"6783.340","NORAD_CAT_ID":"56348","RCS_SIZE":null,"CLASSIFICATION_TYPE":"U","GP_ID":"231857611","OBJECT_NAME":"STARLINK-5888","OBJECT_ID":"2023-058AH","ECCENTRICITY":"0.00016600","OBJECT_TYPE":"PAYLOAD"},{"PERIOD":"92.664","EPOCH":"2023-05-14T22:00:00.999936","TIME_SYSTEM":"UTC","LAUNCH_DATE":"2023-04-27","SITE":"AFWTR","ARG_OF_PERICENTER":"86.5850","TLE_LINE2":"2 56349  97.6635 135.0221 0001668  86.5850  68.6173 15.53999764  1305","FILE":"3908005","REF_FRAME":"TEME","MEAN_ANOMALY":"68.6173","RA_OF_ASC_NODE":"135.0221","INCLINATION":"97.6635","MEAN_ELEMENT_THEORY":"SGP4","CENTER_NAME":"EARTH","DECAY_DATE":null,"APOAPSIS":"406.195","MEAN_MOTION_DDOT":"0.0000000000000","REV_AT_EPOCH":"130","SEMIMAJOR_AXIS":"6783.199","NORAD_CAT_ID":"56349","MEAN_MOTION_DOT":"-0.00801316","PERIAPSIS":"403.932","TLE_LINE1":"1 56349U 23058AJ  23134.91667824 -.00801316  00000-0 -13505-1 0  9997","MEAN_MOTION":"15.53999764","OBJECT_TYPE":"PAYLOAD","OBJECT_ID":"2023-058AJ","ECCENTRICITY":"0.00016680","OBJECT_NAME":"STARLINK-5887","RCS_SIZE":"LARGE","GP_ID":"231857456","CLASSIFICATION_TYPE":"U","COUNTRY_CODE":"US","EPHEMERIS_TYPE":"0","ELEMENT_SET_NO":"999","BSTAR":"-0.01350500000000"},{"EPHEMERIS_TYPE":"0","COUNTRY_CODE":"US","ELEMENT_SET_NO":"999","BSTAR":"-0.01351500000000","MEAN_MOTION_DOT":"-0.00801422","NORAD_CAT_ID":"56350","SEMIMAJOR_AXIS":"6783.246","MEAN_MOTION":"15.53983378","TLE_LINE1":"1 56350U 23058AK  23134.91667824 -.00801422  00000-0 -13515-1 0  9998","PERIAPSIS":"403.976","ECCENTRICITY":"0.00016740","OBJECT_ID":"2023-058AK","OBJECT_TYPE":"PAYLOAD","GP_ID":"231857393","CLASSIFICATION_TYPE":"U","RCS_SIZE":"MEDIUM","OBJECT_NAME":"STARLINK-5886","REF_FRAME":"TEME","MEAN_ANOMALY":"68.8533","FILE":"3908005","TLE_LINE2":"2 56350  97.6630 135.0216 0001674  85.3834  68.8533 15.53983378  1308","MEAN_ELEMENT_THEORY":"SGP4","INCLINATION":"97.6630","RA_OF_ASC_NODE":"135.0216","MEAN_MOTION_DDOT":"0.0000000000000","APOAPSIS":"406.247","DECAY_DATE":null,"CENTER_NAME":"EARTH","REV_AT_EPOCH":"130","EPOCH":"2023-05-14T22:00:00.999936","PERIOD":"92.665","ARG_OF_PERICENTER":"85.3834","SITE":"AFWTR","TIME_SYSTEM":"UTC","LAUNCH_DATE":"2023-04-27"},{"ELEMENT_SET_NO":"999","BSTAR":"-0.01349700000000","EPHEMERIS_TYPE":"0","COUNTRY_CODE":"US","OBJECT_ID":"2023-058AL","ECCENTRICITY":"0.00016830","OBJECT_TYPE":"PAYLOAD","RCS_SIZE":"MEDIUM","GP_ID":"231857425","CLASSIFICATION_TYPE":"U","OBJECT_NAME":"STARLINK-5891","MEAN_MOTION_DOT":"-0.00801094","SEMIMAJOR_AXIS":"6783.176","NORAD_CAT_ID":"56351","MEAN_MOTION":"15.54007678","PERIAPSIS":"403.899","TLE_LINE1":"1 56351U 23058AL  23134.91667824 -.00801094  00000-0 -13497-1 0  9993","APOAPSIS":"406.182","MEAN_MOTION_DDOT":"0.0000000000000","CENTER_NAME":"EARTH","DECAY_DATE":null,"REV_AT_EPOCH":"130","REF_FRAME":"TEME","MEAN_ANOMALY":"70.8668","TLE_LINE2":"2 56351  97.6628 135.0223 0001683  84.8212  70.8668 15.54007678  1301","FILE":"3908005","MEAN_ELEMENT_THEORY":"SGP4","RA_OF_ASC_NODE":"135.0223","INCLINATION":"97.6628","EPOCH":"2023-05-14T22:00:00.999936","PERIOD":"92.664","ARG_OF_PERICENTER":"84.8212","TIME_SYSTEM":"UTC","LAUNCH_DATE":"2023-04-27","SITE":"AFWTR"},{"BSTAR":"-0.01351800000000","ELEMENT_SET_NO":"999","COUNTRY_CODE":"US","EPHEMERIS_TYPE":"0","OBJECT_NAME":"STARLINK-5885","GP_ID":"231857488","CLASSIFICATION_TYPE":"U","RCS_SIZE":null,"OBJECT_TYPE":"PAYLOAD","ECCENTRICITY":"0.00016860","OBJECT_ID":"2023-058AM","TLE_LINE1":"1 56352U 23058AM  23134.91667824 -.00801373  00000-0 -13518-1 0  9998","PERIAPSIS":"403.991","MEAN_MOTION":"15.53975367","NORAD_CAT_ID":"56352","SEMIMAJOR_AXIS":"6783.270","MEAN_MOTION_DOT":"-0.00801373","REV_AT_EPOCH":"130","DECAY_DATE":null,"CENTER_NAME":"EARTH","MEAN_MOTION_DDOT":"0.0000000000000","APOAPSIS":"406.278","INCLINATION":"97.6632","RA_OF_ASC_NODE":"135.0214","MEAN_ELEMENT_THEORY":"SGP4","TLE_LINE2":"2 56352  97.6632 135.0214 0001686  83.7713  69.9799 15.53975367  1306","FILE":"3908005","REF_FRAME":"TEME","MEAN_ANOMALY":"69.9799","SITE":"AFWTR","LAUNCH_DATE":"2023-04-27","TIME_SYSTEM":"UTC","ARG_OF_PERICENTER":"83.7713","PERIOD":"92.666","EPOCH":"2023-05-14T22:00:00.999936"},{"DECAY_DATE":null,"CENTER_NAME":"EARTH","MEAN_MOTION_DDOT":"0.0000000000000","APOAPSIS":"405.972","REV_AT_EPOCH":"130","TLE_LINE2":"2 56353  97.6635 135.0243 0001682  85.5722  74.4723 15.54079855  1304","FILE":"3908005","REF_FRAME":"TEME","MEAN_ANOMALY":"74.4723","INCLINATION":"97.6635","RA_OF_ASC_NODE":"135.0243","MEAN_ELEMENT_THEORY":"SGP4","PERIOD":"92.659","EPOCH":"2023-05-14T22:00:00.999936","SITE":"AFWTR","LAUNCH_DATE":"2023-04-27","TIME_SYSTEM":"UTC","ARG_OF_PERICENTER":"85.5722","ELEMENT_SET_NO":"999","BSTAR":"-0.01345000000000","COUNTRY_CODE":"US","EPHEMERIS_TYPE":"0","OBJECT_TYPE":"PAYLOAD","ECCENTRICITY":"0.00016820","OBJECT_ID":"2023-058AN","OBJECT_NAME":"STARLINK-5874","GP_ID":"231857581","CLASSIFICATION_TYPE":"U","RCS_SIZE":"LARGE","NORAD_CAT_ID":"56353","SEMIMAJOR_AXIS":"6782.966","MEAN_MOTION_DOT":"-0.00800464","TLE_LINE1":"1 56353U 23058AN  23134.91667824 -.00800464  00000-0 -13450-1 0  9994","PERIAPSIS":"403.690","MEAN_MOTION":"15.54079855"},{"REV_AT_EPOCH":"130","DECAY_DATE":null,"CENTER_NAME":"EARTH","MEAN_MOTION_DDOT":"0.0000000000000","APOAPSIS":"406.224","INCLINATION":"97.6635","RA_OF_ASC_NODE":"135.0219","MEAN_ELEMENT_THEORY":"SGP4","TLE_LINE2":"2 56354  97.6635 135.0219 0001675  85.3953  69.3234 15.53991604  1308","FILE":"3908005","MEAN_ANOMALY":"69.3234","REF_FRAME":"TEME","SITE":"AFWTR","LAUNCH_DATE":"2023-04-27","TIME_SYSTEM":"UTC","ARG_OF_PERICENTER":"85.3953","PERIOD":"92.665","EPOCH":"2023-05-14T22:00:00.999936","BSTAR":"-0.01350900000000","ELEMENT_SET_NO":"999","COUNTRY_CODE":"US","EPHEMERIS_TYPE":"0","OBJECT_NAME":"STARLINK-5877","CLASSIFICATION_TYPE":"U","GP_ID":"231857519","RCS_SIZE":null,"OBJECT_TYPE":"PAYLOAD","ECCENTRICITY":"0.00016750","OBJECT_ID":"2023-058AP","TLE_LINE1":"1 56354U 23058AP  23134.91667824 -.00801316  00000-0 -13509-1 0  9997","PERIAPSIS":"403.951","MEAN_MOTION":"15.53991604","NORAD_CAT_ID":"56354","SEMIMAJOR_AXIS":"6783.222","MEAN_MOTION_DOT":"-0.00801316"},{"EPHEMERIS_TYPE":"0","COUNTRY_CODE":"US","BSTAR":"-0.01350100000000","ELEMENT_SET_NO":"999","MEAN_MOTION":"15.54040989","PERIAPSIS":"403.802","TLE_LINE1":"1 56355U 23058AQ  23134.91667824 -.00802211  00000-0 -13501-1 0  9995","MEAN_MOTION_DOT":"-0.00802211","SEMIMAJOR_AXIS":"6783.079","NORAD_CAT_ID":"56355","RCS_SIZE":"MEDIUM","GP_ID":"231857550","CLASSIFICATION_TYPE":"U","OBJECT_NAME":"STARLINK-5533","OBJECT_ID":"2023-058AQ","ECCENTRICITY":"0.00016830","OBJECT_TYPE":"PAYLOAD","MEAN_ELEMENT_THEORY":"SGP4","RA_OF_ASC_NODE":"135.0233","INCLINATION":"97.6636","MEAN_ANOMALY":"70.7148","REF_FRAME":"TEME","TLE_LINE2":"2 56355  97.6636 135.0233 0001683  86.9064  70.7148 15.54040989  1307","FILE":"3908005","REV_AT_EPOCH":"130","APOAPSIS":"406.085","MEAN_MOTION_DDOT":"0.0000000000000","CENTER_NAME":"EARTH","DECAY_DATE":null,"ARG_OF_PERICENTER":"86.9064","TIME_SYSTEM":"UTC","LAUNCH_DATE":"2023-04-27","SITE":"AFWTR","EPOCH":"2023-05-14T22:00:00.999936","PERIOD":"92.662"},{"COUNTRY_CODE":"US","EPHEMERIS_TYPE":"0","BSTAR":"-0.01348700000000","ELEMENT_SET_NO":"999","PERIAPSIS":"403.855","TLE_LINE1":"1 56356U 23058AR  23134.91667824 -.00800983  00000-0 -13487-1 0  9993","MEAN_MOTION":"15.54023870","SEMIMAJOR_AXIS":"6783.129","NORAD_CAT_ID":"56356","MEAN_MOTION_DOT":"-0.00800983","OBJECT_NAME":"STARLINK-5535","RCS_SIZE":"MEDIUM","GP_ID":"231857612","CLASSIFICATION_TYPE":"U","OBJECT_TYPE":"PAYLOAD","OBJECT_ID":"2023-058AR","ECCENTRICITY":"0.00016790","RA_OF_ASC_NODE":"135.0228","INCLINATION":"97.6631","MEAN_ELEMENT_THEORY":"SGP4","FILE":"3908005","TLE_LINE2":"2 56356  97.6631 135.0228 0001679  84.6624  71.9925 15.54023870  1305","MEAN_ANOMALY":"71.9925","REF_FRAME":"TEME","REV_AT_EPOCH":"130","CENTER_NAME":"EARTH","DECAY_DATE":null,"APOAPSIS":"406.132","MEAN_MOTION_DDOT":"0.0000000000000","TIME_SYSTEM":"UTC","LAUNCH_DATE":"2023-04-27","SITE":"AFWTR","ARG_OF_PERICENTER":"84.6624","PERIOD":"92.663","EPOCH":"2023-05-14T22:00:00.999936"}];
